NUVIEW BRAVO            
1 62457U 24252D   26169.87844293 -.00000221  00000+0  00000+0 0  9992
2 62457   0.0716 150.1952 0001920 331.3396  18.6896  1.00271836  3811
THURAYA-4               
1 62483U 25001A   26169.04821201  .00000133  00000+0  00000+0 0  9998
2 62483   0.0270  66.4492 0000193 212.2121  49.2922  1.00272366  4187
SHIJIAN-25 (SJ-25)      
1 62485U 25002A   26168.80679181 -.00000358  00000+0  00000+0 0  9992
2 62485   5.1153  61.1628 0052241 173.4299  89.1640  1.00264537  5365
TJS-14                  
1 62804U 25017A   26169.96985461  .00000110  00000+0  00000+0 0  9997
2 62804   0.7777 295.7738 0000905 284.4081  54.5845  1.00275286  5289
SPAINSAT NG I           
1 62852U 25021A   26169.54418663  .00000145  00000+0  00000+0 0  9992
2 62852   0.0184   1.2360 0000168 289.9037 200.5362  1.00270022  4009
QZS-6 (MICHIBIKI-6)     
1 62876U 25023A   26169.90025211 -.00000239  00000+0  00000+0 0  9998
2 62876   0.0578  72.3004 0001815  19.9785 229.4587  1.00270305  4965
ZHONGXING-10R           
1 63075U 25036A   26169.91675215 -.00000358  00000+0  00000+0 0  9992
2 63075   0.0159 302.2057 0003528 197.1590 208.3521  1.00271074  4970
TJS-15                  
1 63157U 25045A   26168.79121557 -.00000270  00000+0  00000+0 0  9996
2 63157   0.2876  85.4798 0004644 297.2567 262.5358  1.00271170  4761
TIANLIAN 2-04           
1 63361U 25062A   26169.91077213 -.00000141  00000+0  00000+0 0  9993
2 63361   4.3693 274.4163 0031636  10.3954  30.2668  1.00271873  4620
TJS-16                  
1 63397U 25064A   26168.71475683 -.00000111  00000+0  00000+0 0  9991
2 63397   1.1003  81.4533 0003334 290.0433 312.3891  1.00271394  4393
TJS-17                  
1 63524U 25073A   26168.71553683 -.00000075  00000+0  00000+0 0  9999
2 63524   1.0661  82.6888 0002062 297.6727 307.7357  1.00272176  4299
TIANLIAN 2-05           
1 63662U 25084A   26169.97020127  .00000118  00000+0  00000+0 0  9992
2 63662   4.4458 279.8177 0003144 148.1684 208.8295  1.00271493  4392
TJS-19                  
1 63924U 25097A   26168.78218750 -.00000280  00000+0  00000+0 0  9997
2 63924   3.2851 317.4623 0002910 249.7750 121.5337  1.00276123  4151
CHINASAT 3B             
1 64062U 25106A   26169.62197517 -.00000051  00000+0  00000+0 0  9999
2 64062   0.0297 110.9581 0003026  13.9280 173.1884  1.00271660  4073
SXM-10                  
1 64290U 25122A   26169.65801770 -.00000023  00000+0  00000+0 0  9995
2 64290   0.0219  34.1784 0002018 327.1766  26.2533  1.00269699  3696
COSMOS 2589             
1 64467U 25131A   26168.79103211 -.00000296  00000+0  00000+0 0  9992
2 64467   0.0368  81.6800 0000163  32.8632 174.2407  1.00272159  3569
CHINASAT 9C             
1 64470U 25132A   26169.90025211 -.00000253  00000+0  00000+0 0  9997
2 64470   0.0145  68.9920 0002700  15.9191 238.4800  1.00268732  4167
MTG-S1                  
1 64723U 25143A   26169.39513120 -.00000028  00000+0  00000+0 0  9994
2 64723   0.6020 339.2639 0003993  77.2395 348.9838  1.00323776  3436
DROR 1                  
1 64784U 25148A   26169.89410602 -.00000041  00000+0  00000+0 0  9997
2 64784   0.0401  69.4899 0002628 319.7791 195.7257  1.00270951  3314
SHIYAN-29               
1 65486U 25196A   26169.66871260 -.00000285  00000+0  00000+0 0  9996
2 65486  28.8232  18.5168 0012597 177.4218  46.3156  1.00284927  2896
NUSANTARA LIMA (NUSANT*)
1 65588U 25205A   26169.85492950 -.00000364  00000+0  00000+0 0  9994
2 65588   0.0314 140.9062 0000768  81.7595 105.0366  1.00270183  2735
TJS-20                  
1 66142U 25238A   26169.90730544  .00000017  00000+0  00000+0 0  9991
2 66142   5.4649 299.5536 0004627 164.3977 192.2881  1.00275304  2346
CMS-03 (GSAT-7R)        
1 66311U 25249B   26169.90955878 -.00000083  00000+0  00000+0 0  9994
2 66311   0.0137  47.7300 0001615  34.1921 226.6432  1.00271229  2364
VIASAT-3 F2             
1 66454U 25261A   26169.87922293 -.00000240  00000+0  00000+0 0  9992
2 66454   0.0414 171.6555 0000036 316.3499  16.6510  1.00270536  2814
SHIJIAN-28 (SJ-28)      
1 66549U 25277A   26169.77543718 -.00000366  00000+0  00000+0 0  9993
2 66549   4.5333 272.1102 0001231  38.8542 351.9504  1.00276679  2177
TJS-22                  
1 66990U 25290A   26169.87144576 -.00000013  00000+0  00000+0 0  9997
2 66990   1.5248 286.5798 0001934 330.1323  30.6173  1.00273895  2040
TJS-23                  
1 67226U 25306A   26169.59784026  .00000012  00000+0  00000+0 0  9995
2 67226   5.5850 297.4791 0005414 171.6767 188.4971  1.00275797  1902
FENGYUN 4C              
1 67246U 25312A   26169.79154697 -.00000329  00000+0  00000+0 0  9993
2 67246   0.0467 138.8083 0000363  71.9030 114.2657  1.00271531  1790
SHIJIAN-29A (SJ-29A)    
1 67302U 25315A   26169.98068799 -.00000074  00000+0  00000+0 0  9994
2 67302   3.4032  95.0617 0003208  24.5008 213.8728  1.00269966  1632
SHIJIAN-29B (SJ-29B)    
1 67403U 25315C   26169.98068799 -.00000074  00000+0  00000+0 0  9996
2 67403   3.4021  95.0545 0003952  34.0678 204.3528  1.00270071  1707
ELEKTRO-L 5             
1 67756U 26028A   26169.04907099 -.00000103  00000+0  00000+0 0  9994
2 67756   0.2501 311.9136 0001747 179.9993 228.0916  1.00272307  1260
JAM-E JAM 1             
1 67757U 26028B   26169.90147271  .00000149  00000+0  00000+0 0  9997
2 67757   0.2557 302.9530 0001128 294.4155  28.2821  1.00276586  1130
