OBJECT_NAME,OBJECT_ID,EPOCH,MEAN_MOTION,ECCENTRICITY,INCLINATION,RA_OF_ASC_NODE,ARG_OF_PERICENTER,MEAN_ANOMALY,EPHEMERIS_TYPE,CLASSIFICATION_TYPE,NORAD_CAT_ID,ELEMENT_SET_NO,REV_AT_EPOCH,BSTAR,MEAN_MOTION_DOT,MEAN_MOTION_DDOT
NUVIEW BRAVO,2024-252D,2026-06-18T21:04:57.469152,1.00271836,.00019208,0.0716,150.1952,331.3396,18.6896,0,U,62457,999,381,0,-.221E-5,0
THURAYA-4,2025-001A,2026-06-18T01:09:25.517664,1.00272366,.00001932,0.0270,66.4492,212.2121,49.2922,0,U,62483,999,418,0,.133E-5,0
SHIJIAN-25 (SJ-25),2025-002A,2026-06-17T19:21:46.812384,1.00264537,.0052241,5.1153,61.1628,173.4299,89.1640,0,U,62485,999,536,0,-.358E-5,0
TJS-14,2025-017A,2026-06-18T23:16:35.438304,1.00275286,.00009051,0.7777,295.7738,284.4081,54.5845,0,U,62804,999,528,0,.11E-5,0
SPAINSAT NG I,2025-021A,2026-06-18T13:03:37.724832,1.00270022,.0000168,0.0184,1.2360,289.9037,200.5362,0,U,62852,999,400,0,.145E-5,0
QZS-6 (MICHIBIKI-6),2025-023A,2026-06-18T21:36:21.782304,1.00270305,.00018157,0.0578,72.3004,19.9785,229.4587,0,U,62876,999,496,0,-.239E-5,0
ZHONGXING-10R,2025-036A,2026-06-18T22:00:07.385760,1.00271074,.0003528,0.0159,302.2057,197.1590,208.3521,0,U,63075,999,497,0,-.358E-5,0
TJS-15,2025-045A,2026-06-17T18:59:21.025248,1.00271170,.0004644,0.2876,85.4798,297.2567,262.5358,0,U,63157,999,476,0,-.27E-5,0
TIANLIAN 2-04,2025-062A,2026-06-18T21:51:30.712032,1.00271873,.00316361,4.3693,274.4163,10.3954,30.2668,0,U,63361,999,462,0,-.141E-5,0
TJS-16,2025-064A,2026-06-17T17:09:14.990112,1.00271394,.0003334,1.1003,81.4533,290.0433,312.3891,0,U,63397,999,439,0,-.111E-5,0
TJS-17,2025-073A,2026-06-17T17:10:22.382112,1.00272176,.0002062,1.0661,82.6888,297.6727,307.7357,0,U,63524,999,429,0,-.75E-6,0
TIANLIAN 2-05,2025-084A,2026-06-18T23:17:05.389728,1.00271493,.00031449,4.4458,279.8177,148.1684,208.8295,0,U,63662,999,439,0,.118E-5,0
TJS-19,2025-097A,2026-06-17T18:46:21.000000,1.00276123,.000291,3.2851,317.4623,249.7750,121.5337,0,U,63924,999,415,0,-.28E-5,0
CHINASAT 3B,2025-106A,2026-06-18T14:55:38.654688,1.00271660,.00030262,0.0297,110.9581,13.9280,173.1884,0,U,64062,999,407,0,-.51E-6,0
SXM-10,2025-122A,2026-06-18T15:47:32.729280,1.00269699,.00020183,0.0219,34.1784,327.1766,26.2533,0,U,64290,999,369,0,-.23E-6,0
COSMOS 2589,2025-131A,2026-06-17T18:59:05.174304,1.00272159,.0000163,0.0368,81.6800,32.8632,174.2407,0,U,64467,999,356,0,-.296E-5,0
CHINASAT 9C,2025-132A,2026-06-18T21:36:21.782304,1.00268732,.00027,0.0145,68.9920,15.9191,238.4800,0,U,64470,999,416,0,-.253E-5,0
MTG-S1,2025-143A,2026-06-18T09:28:59.335680,1.00323776,.00039932,0.6020,339.2639,77.2395,348.9838,0,U,64723,999,343,0,-.28E-6,0
DROR 1,2025-148A,2026-06-18T21:27:30.760128,1.00270951,.00026287,0.0401,69.4899,319.7791,195.7257,0,U,64784,999,331,0,-.41E-6,0
SHIYAN-29,2025-196A,2026-06-18T16:02:56.768640,1.00284927,.00125976,28.8232,18.5168,177.4218,46.3156,0,U,65486,999,289,0,-.285E-5,0
NUSANTARA LIMA (NUSANTARA 5),2025-205A,2026-06-18T20:31:05.908800,1.00270183,.00007687,0.0314,140.9062,81.7595,105.0366,0,U,65588,999,273,0,-.364E-5,0
TJS-20,2025-238A,2026-06-18T21:46:31.190016,1.00275304,.0004627,5.4649,299.5536,164.3977,192.2881,0,U,66142,999,234,0,.17E-6,0
CMS-03 (GSAT-7R),2025-249B,2026-06-18T21:49:45.878592,1.00271229,.00016155,0.0137,47.7300,34.1921,226.6432,0,U,66311,999,236,0,-.83E-6,0
VIASAT-3 F2,2025-261A,2026-06-18T21:06:04.861152,1.00270536,.00000363,0.0414,171.6555,316.3499,16.6510,0,U,66454,999,281,0,-.24E-5,0
SHIJIAN-28 (SJ-28),2025-277A,2026-06-18T18:36:37.772352,1.00276679,.00012313,4.5333,272.1102,38.8542,351.9504,0,U,66549,999,217,0,-.366E-5,0
TJS-22,2025-290A,2026-06-18T20:54:52.913664,1.00273895,.00019344,1.5248,286.5798,330.1323,30.6173,0,U,66990,999,204,0,-.13E-6,0
TJS-23,2025-306A,2026-06-18T14:20:53.398464,1.00275797,.00054144,5.5850,297.4791,171.6767,188.4971,0,U,67226,999,190,0,.12E-6,0
FENGYUN 4C,2025-312A,2026-06-18T18:59:49.658208,1.00271531,.00003637,0.0467,138.8083,71.9030,114.2657,0,U,67246,999,179,0,-.329E-5,0
SHIJIAN-29A (SJ-29A),2025-315A,2026-06-18T23:32:11.442336,1.00269966,.00032084,3.4032,95.0617,24.5008,213.8728,0,U,67302,999,163,0,-.74E-6,0
SHIJIAN-29B (SJ-29B),2025-315C,2026-06-18T23:32:11.442336,1.00270071,.00039521,3.4021,95.0545,34.0678,204.3528,0,U,67403,999,170,0,-.74E-6,0
ELEKTRO-L 5,2026-028A,2026-06-18T01:10:39.733536,1.00272307,.00017475,0.2501,311.9136,179.9993,228.0916,0,U,67756,999,126,0,-.103E-5,0
JAM-E JAM 1,2026-028B,2026-06-18T21:38:07.242144,1.00276586,.00011285,0.2557,302.9530,294.4155,28.2821,0,U,67757,999,113,0,.149E-5,0
